*******************************************************************************
Ephemeris / WWW_USER Mon Mar 24 07:48:15 2025 Pasadena, USA      / Horizons    
*******************************************************************************
Target body name: (2018 TB)                       {source: JPL#26}
Center body name: Earth (399)                     {source: DE441}
Center-site name: Mauna Kea
*******************************************************************************
Start time      : A.D. 2018-Nov-08 03:54:00.0000 UT      
Stop  time      : A.D. 2018-Nov-08 16:17:00.0000 UT      
Step-size       : 1 minutes
*******************************************************************************
Target pole/equ : undefined
Target radii    : undefined                                                    
Center geodetic : 204.5278, 19.8260847, 4.21024   {E-lon(deg),Lat(deg),Alt(km)}
Center cylindric: 204.5278, 6006.35451, 2151.0229 {E-lon(deg),Dxy(km),Dz(km)}
Center pole/equ : ITRF93                          {East-longitude positive}
Center radii    : 6378.137, 6378.137, 6356.752 km {Equator_a, b, pole_c}       
Target primary  : Sun
Vis. interferer : MOON (R_eq= 1737.400) km        {source: DE441}
Rel. light bend : Sun                             {source: DE441}
Rel. lght bnd GM: 1.3271E+11 km^3/s^2                                          
Small-body perts: Yes                             {source: SB441-N16}
Atmos refraction: NO (AIRLESS)
RA format       : HMS
Time format     : CAL 
Calendar mode   : Mixed Julian/Gregorian
RTS-only print  : NO       
EOP file        : eop.250321.p250617                                           
EOP coverage    : DATA-BASED 1962-JAN-20 TO 2025-MAR-21. PREDICTS-> 2025-JUN-16
Units conversion: 1 au= 149597870.700 km, c= 299792.458 km/s, 1 day= 86400.0 s 
Table cut-offs 1: Elevation (-90.0deg=NO ),Airmass (>38.000=NO), Daylight (YES)
Table cut-offs 2: Solar elongation (  0.0,180.0=NO ),Local Hour Angle( 0.0=NO )
Table cut-offs 3: RA/DEC angular rate (     0.0=NO )                           
*******************************************************************************
Initial IAU76/J2000 heliocentric ecliptic osculating elements (au, days, deg.):
  EPOCH=  2458410.5 ! 2018-Oct-19.00 (TDB)         Residual RMS= .12604        
   EC= .5817616216321111   QR= 1.001672821897195   TP= 2458383.1822299529      
   OM= 14.42282174156359   W=  341.1556337077549   IN= 3.61300419916586        
  Equivalent ICRF heliocentric cartesian coordinates (au, au/d):
   X= 9.381709462996228E-01  Y= 4.515017153732180E-01  Z= 2.129237315158303E-01
  VX=-5.799214133182419E-03 VY= 1.778204046057418E-02 VZ= 9.138573561666745E-03
Asteroid physical parameters (km, seconds, rotational period in hours):        
   GM= n.a.                RAD= n.a.               ROTPER= n.a.                
   H= 24.89                G= .150                 B-V= n.a.                   
                           ALBEDO= n.a.            STYP= n.a.                  
*******************************************************************************
 Date__(UT)__HR:MN     R.A._________(ICRF)_________DEC
******************************************************
$$SOE
 2018-Nov-08 03:54 Cm  03 52 38.735055 +32 53 59.26236
 2018-Nov-08 03:55 Cm  03 52 38.718100 +32 53 59.24026
 2018-Nov-08 03:56 Cm  03 52 38.701081 +32 53 59.21829
 2018-Nov-08 03:57 Cm  03 52 38.683999 +32 53 59.19643
 2018-Nov-08 03:58 Cm  03 52 38.666854 +32 53 59.17468
 2018-Nov-08 03:59 Cr  03 52 38.649645 +32 53 59.15306
 2018-Nov-08 04:00 Cm  03 52 38.632373 +32 53 59.13154
 2018-Nov-08 04:01 Cm  03 52 38.615037 +32 53 59.11014
 2018-Nov-08 04:02 Cm  03 52 38.597638 +32 53 59.08885
 2018-Nov-08 04:03 Cm  03 52 38.580175 +32 53 59.06766
 2018-Nov-08 04:04 Cm  03 52 38.562649 +32 53 59.04659
 2018-Nov-08 04:05 Cm  03 52 38.545058 +32 53 59.02561
 2018-Nov-08 04:06 Cm  03 52 38.527404 +32 53 59.00474
 2018-Nov-08 04:07 Cm  03 52 38.509686 +32 53 58.98396
 2018-Nov-08 04:08 Nm  03 52 38.491904 +32 53 58.96329
 2018-Nov-08 04:09 Nm  03 52 38.474057 +32 53 58.94271
 2018-Nov-08 04:10 Nm  03 52 38.456147 +32 53 58.92223
 2018-Nov-08 04:11 Nm  03 52 38.438172 +32 53 58.90184
 2018-Nov-08 04:12 Nm  03 52 38.420133 +32 53 58.88153
 2018-Nov-08 04:13 Nm  03 52 38.402029 +32 53 58.86132
 2018-Nov-08 04:14 Nm  03 52 38.383861 +32 53 58.84120
 2018-Nov-08 04:15 Nm  03 52 38.365629 +32 53 58.82116
 2018-Nov-08 04:16 Nm  03 52 38.347332 +32 53 58.80120
 2018-Nov-08 04:17 Nm  03 52 38.328970 +32 53 58.78132
 2018-Nov-08 04:18 Nm  03 52 38.310544 +32 53 58.76152
 2018-Nov-08 04:19 Nm  03 52 38.292053 +32 53 58.74180
 2018-Nov-08 04:20 Nm  03 52 38.273498 +32 53 58.72215
 2018-Nov-08 04:21 Nm  03 52 38.254877 +32 53 58.70258
 2018-Nov-08 04:22 Nm  03 52 38.236192 +32 53 58.68308
 2018-Nov-08 04:23 Nm  03 52 38.217441 +32 53 58.66364
 2018-Nov-08 04:24 Nm  03 52 38.198626 +32 53 58.64428
 2018-Nov-08 04:25 N   03 52 38.179746 +32 53 58.62498
 2018-Nov-08 04:26 N   03 52 38.160800 +32 53 58.60574
 2018-Nov-08 04:27 N   03 52 38.141789 +32 53 58.58657
 2018-Nov-08 04:28 N   03 52 38.122714 +32 53 58.56745
 2018-Nov-08 04:29 N   03 52 38.103573 +32 53 58.54839
 2018-Nov-08 04:30 N   03 52 38.084366 +32 53 58.52939
 2018-Nov-08 04:31 N   03 52 38.065095 +32 53 58.51044
 2018-Nov-08 04:32 N   03 52 38.045758 +32 53 58.49155
 2018-Nov-08 04:33 N   03 52 38.026355 +32 53 58.47270
 2018-Nov-08 04:34 A   03 52 38.006888 +32 53 58.45390
 2018-Nov-08 04:35 A   03 52 37.987355 +32 53 58.43515
 2018-Nov-08 04:36 A   03 52 37.967756 +32 53 58.41644
 2018-Nov-08 04:37 A   03 52 37.948092 +32 53 58.39777
 2018-Nov-08 04:38 A   03 52 37.928362 +32 53 58.37914
 2018-Nov-08 04:39 A   03 52 37.908566 +32 53 58.36055
 2018-Nov-08 04:40 A   03 52 37.888705 +32 53 58.34200
 2018-Nov-08 04:41 A   03 52 37.868779 +32 53 58.32348
 2018-Nov-08 04:42 A   03 52 37.848786 +32 53 58.30499
 2018-Nov-08 04:43 A   03 52 37.828728 +32 53 58.28654
 2018-Nov-08 04:44 A   03 52 37.808604 +32 53 58.26811
 2018-Nov-08 04:45 A   03 52 37.788415 +32 53 58.24971
 2018-Nov-08 04:46 A   03 52 37.768159 +32 53 58.23133
 2018-Nov-08 04:47 A   03 52 37.747838 +32 53 58.21297
 2018-Nov-08 04:48 A   03 52 37.727451 +32 53 58.19464
 2018-Nov-08 04:49 A   03 52 37.706998 +32 53 58.17632
 2018-Nov-08 04:50 A   03 52 37.686480 +32 53 58.15802
 2018-Nov-08 04:51 A   03 52 37.665895 +32 53 58.13974
 2018-Nov-08 04:52 A   03 52 37.645245 +32 53 58.12146
 2018-Nov-08 04:53 A   03 52 37.624528 +32 53 58.10320
 2018-Nov-08 04:54 A   03 52 37.603746 +32 53 58.08495
 2018-Nov-08 04:55 A   03 52 37.582898 +32 53 58.06670
 2018-Nov-08 04:56 A   03 52 37.561983 +32 53 58.04846
 2018-Nov-08 04:57 A   03 52 37.541003 +32 53 58.03022
 2018-Nov-08 04:58 A   03 52 37.519957 +32 53 58.01198
 2018-Nov-08 04:59 A   03 52 37.498845 +32 53 57.99374
 2018-Nov-08 05:00 A   03 52 37.477667 +32 53 57.97550
 2018-Nov-08 05:01     03 52 37.456423 +32 53 57.95725
 2018-Nov-08 05:02     03 52 37.435113 +32 53 57.93899
 2018-Nov-08 05:03     03 52 37.413737 +32 53 57.92073
 2018-Nov-08 05:04     03 52 37.392295 +32 53 57.90245
 2018-Nov-08 05:05     03 52 37.370787 +32 53 57.88416
 2018-Nov-08 05:06     03 52 37.349213 +32 53 57.86586
 2018-Nov-08 05:07     03 52 37.327573 +32 53 57.84754
 2018-Nov-08 05:08     03 52 37.305867 +32 53 57.82920
 2018-Nov-08 05:09     03 52 37.284095 +32 53 57.81084
 2018-Nov-08 05:10     03 52 37.262257 +32 53 57.79245
 2018-Nov-08 05:11     03 52 37.240354 +32 53 57.77404
 2018-Nov-08 05:12     03 52 37.218384 +32 53 57.75561
 2018-Nov-08 05:13     03 52 37.196348 +32 53 57.73714
 2018-Nov-08 05:14     03 52 37.174247 +32 53 57.71865
 2018-Nov-08 05:15     03 52 37.152079 +32 53 57.70012
 2018-Nov-08 05:16     03 52 37.129846 +32 53 57.68156
 2018-Nov-08 05:17     03 52 37.107547 +32 53 57.66296
 2018-Nov-08 05:18     03 52 37.085182 +32 53 57.64432
 2018-Nov-08 05:19     03 52 37.062751 +32 53 57.62565
 2018-Nov-08 05:20     03 52 37.040254 +32 53 57.60692
 2018-Nov-08 05:21     03 52 37.017691 +32 53 57.58816
 2018-Nov-08 05:22     03 52 36.995063 +32 53 57.56935
 2018-Nov-08 05:23     03 52 36.972369 +32 53 57.55049
 2018-Nov-08 05:24     03 52 36.949609 +32 53 57.53158
 2018-Nov-08 05:25     03 52 36.926784 +32 53 57.51261
 2018-Nov-08 05:26     03 52 36.903892 +32 53 57.49360
 2018-Nov-08 05:27     03 52 36.880935 +32 53 57.47452
 2018-Nov-08 05:28     03 52 36.857913 +32 53 57.45539
 2018-Nov-08 05:29     03 52 36.834825 +32 53 57.43620
 2018-Nov-08 05:30     03 52 36.811671 +32 53 57.41695
 2018-Nov-08 05:31     03 52 36.788452 +32 53 57.39763
 2018-Nov-08 05:32     03 52 36.765168 +32 53 57.37824
 2018-Nov-08 05:33     03 52 36.741818 +32 53 57.35879
 2018-Nov-08 05:34     03 52 36.718402 +32 53 57.33927
 2018-Nov-08 05:35     03 52 36.694921 +32 53 57.31968
 2018-Nov-08 05:36     03 52 36.671375 +32 53 57.30001
 2018-Nov-08 05:37     03 52 36.647764 +32 53 57.28026
 2018-Nov-08 05:38     03 52 36.624087 +32 53 57.26044
 2018-Nov-08 05:39     03 52 36.600345 +32 53 57.24054
 2018-Nov-08 05:40     03 52 36.576538 +32 53 57.22056
 2018-Nov-08 05:41     03 52 36.552666 +32 53 57.20049
 2018-Nov-08 05:42     03 52 36.528729 +32 53 57.18034
 2018-Nov-08 05:43     03 52 36.504726 +32 53 57.16010
 2018-Nov-08 05:44     03 52 36.480659 +32 53 57.13977
 2018-Nov-08 05:45     03 52 36.456527 +32 53 57.11935
 2018-Nov-08 05:46     03 52 36.432330 +32 53 57.09884
 2018-Nov-08 05:47     03 52 36.408068 +32 53 57.07823
 2018-Nov-08 05:48     03 52 36.383741 +32 53 57.05753
 2018-Nov-08 05:49     03 52 36.359350 +32 53 57.03672
 2018-Nov-08 05:50     03 52 36.334894 +32 53 57.01582
 2018-Nov-08 05:51     03 52 36.310373 +32 53 56.99481
 2018-Nov-08 05:52     03 52 36.285788 +32 53 56.97370
 2018-Nov-08 05:53     03 52 36.261139 +32 53 56.95248
 2018-Nov-08 05:54     03 52 36.236425 +32 53 56.93115
 2018-Nov-08 05:55     03 52 36.211647 +32 53 56.90971
 2018-Nov-08 05:56     03 52 36.186804 +32 53 56.88816
